
QU CANXMCZ
.QXSXMXS 150537
A8X
FI CZ3097/AN B-2057
DT QXT POR1 150537 M11A
-  RA INVALID QUCANXMCZ~1RA112150536
-  //WEATHER INFO LIST. PLEASE NOTE THE WEATHER
//id:51b312b9d49d45ffa3811bf78012cad1
[FT] TAF COR RCKH 150500Z 150612 28008KT 9999 FEW015 TEMPO 1506/1512 17010KT BECMG 1512/1514 10005KT TEMPO 1518/1524 18010G20KT BECMG 1600/1602 28008KT=


