QU CANXMCZ
.DDLXCXA 140123
A8X
FI CZ0/AN B-2075
DT DDL ORD 140123 M80A
-  RA INVALID QUCANXMCZ~1RA112140122
-  //WEATHER INFO LIST. PLEASE NOTE THE WEATHER
//id:0c035ed0429c47768d4043a259c0890e
[FC] TAF ZSPD 132222Z 140009 06006MPS 6000 SCT016 TX27/06Z TN24/00Z=
[SA] METAR ZSPD 140100Z 06008MPS 9999 BKN016 25/22 Q1013 NOSIG=
[FT] TAF  KORD 132337Z 140006 10007KT P6SM SCT050 FM140100 VRB03KT P6SM SKC FM141600 22006KT P6SM FEW035 SCT250=



